latitude,longitude,altitude,geometry,id,name,coordinates,totalDocks,docksAvailable,bikesAvailable,classicBikesAvailable,smartBikesAvailable,electricBikesAvailable,rewardBikesAvailable,rewardDocksAvailable,kioskStatus,kioskPublicStatus,kioskConnectionStatus,kioskType,addressStreet,addressCity,addressState,addressZipCode,bikes,closeTime,eventEnd,eventStart,isEventBased,isVirtual,kioskId,notes,openTime,publicText,timeZone,trikesAvailable
39.95378,-75.16374,,Point,,3004,Municipal Services Building Plaza,30,21,9,9,0,0,9,21,FullService,Active,Active,1,1401 John F. Kennedy Blvd.,Philadelphia,PA,19102,7|false|true|null|13|false|true|null|15|false|true|null|16|false|true|null|18|false|true|null|20|false|true|null|25|false|true|null|27|false|true|null|30|false|true|null,,,,false,false,3004,,,,,0
39.94733,-75.14403,,Point,,3005,"Welcome Park, NPS",13,8,5,5,0,0,5,8,FullService,Active,Active,1,191 S. 2nd St.,Philadelphia,PA,19106,2|false|true|null|4|false|true|null|5|false|true|null|10|false|true|null|12|false|true|null,,,,false,false,3005,,,,,0
39.9522,-75.20311,,Point,,3006,40th & Spruce,17,14,1,1,0,0,2,15,FullService,Active,Active,1,246 S. 40th St.,Philadelphia,PA,19104,12|false|false|null|14|false|true|null|15|false|false|null,,,,false,false,3006,,,,,0
39.94517,-75.15993,,Point,,3007,"11th & Pine, Kahn Park",20,5,14,12,0,2,14,6,FullService,Active,Active,1,328 S. 11th St.,Philadelphia,PA,19107,1|false|true|null|2|false|true|null|3|false|true|null|4|true|true|0.8|5|false|true|null|6|false|true|null|9|false|true|null|10|false|true|null|12|false|true|null|14|false|true|null|16|false|false|null|17|false|true|null|18|false|true|null|19|true|true|0.8|20|false|true|null,,,,false,false,3007,,,,,0
39.98078,-75.15055,,Point,,3008,Temple University Station,19,9,10,5,0,5,10,9,FullService,Active,Active,1,1076 Berks Street,Philadelphia,PA,19122,1|true|true|0.8|3|false|true|null|4|true|true|0.8|6|false|true|null|9|false|true|null|12|false|true|null|14|true|true|0.8|15|true|true|0.8|16|true|true|0.8|17|false|true|null,,,,false,false,3008,,,,,0
39.95576,-75.18982,,Point,,3009,33rd & Market,14,9,5,2,0,3,5,9,FullService,Active,Active,1,3318 Market St.,Philadelphia,PA,19104,1|true|true|0.8|5|true|true|0.8|7|true|true|0.8|9|false|true|null|14|false|true|null,,,,false,false,3009,,,,,0
39.94711,-75.16618,,Point,,3010,15th & Spruce,22,10,9,6,0,3,10,12,FullService,Active,Active,1,1483 Spruce St.,Philadelphia,PA,19102,1|false|true|null|6|false|false|null|7|false|true|null|11|true|true|0.8|13|true|true|0.8|15|false|false|null|17|false|true|null|18|true|true|0.8|19|false|true|null|20|false|true|null|21|false|true|null|22|false|false|null,,,,false,false,3010,,,,,0
39.95967,-75.19649,,Point,,3011,38th & Powelton,20,17,3,3,0,0,3,17,FullService,Active,Active,1,3788 Powelton Avenue,Philadelphia,PA,19104,5|false|true|null|8|false|true|null|20|false|true|null,,,,false,false,3011,,,,,0
39.94218,-75.17747,,Point,,3012,21st & Catharine,27,24,3,3,0,0,3,24,FullService,Active,Active,1,807 S. 21st St.,Philadelphia,PA,19149,5|false|true|null|8|false|true|null|9|false|true|null,,,,false,false,3012,,,,,0
39.96317,-75.14792,,Point,,3013,6th & Fairmount,17,6,10,8,0,2,11,6,FullService,Active,Active,1,674 N. 6th St.,Philadelphia,PA,19123,1|false|true|null|2|false|true|null|3|false|true|null|4|false|true|null|6|false|true|null|7|false|true|null|8|false|true|null|11|true|true|0.8|13|true|true|0.8|16|false|false|null|17|false|true|null,,,,false,false,3013,,,,,0
39.95886,-75.17369,,Point,,3014,"21st & Winter, Franklin Institute",25,8,15,15,0,0,15,9,FullService,Active,Active,1,2090 Winter St.,Philadelphia,PA,19103,1|false|true|null|2|false|true|null|3|false|true|null|4|false|true|null|5|false|true|null|7|false|true|null|8|false|true|null|9|false|false|null|11|false|true|null|12|false|true|null|13|false|true|null|14|false|true|null|15|false|true|null|17|false|false|null|18|false|true|null|24|false|true|null|25|false|true|null,,,,false,false,3014,,,,,0
39.94735,-75.14886,,Point,,3015,"4th & Walnut, NPS",11,3,8,8,0,0,8,3,FullService,Active,Active,1,422 Walnut St.,Philadelphia,PA,19106,2|false|true|null|3|false|true|null|4|false|true|null|5|false|true|null|6|false|true|null|8|false|true|null|10|false|true|null|11|false|true|null,,,,false,false,3015,,,,,0
39.96892,-75.1547,,Point,,3016,"11th & Poplar, John F. Street Community Center",15,3,12,9,0,3,12,3,FullService,Active,Active,1,1100 Poplar St.,Philadelphia,PA,19123,1|false|true|null|2|false|true|null|3|false|true|null|4|false|true|null|5|false|true|null|7|false|true|null|8|false|true|null|9|true|true|0.8|10|true|true|0.8|12|false|true|null|13|false|true|null|15|true|true|0.8,,,,false,false,3016,,,,,0
39.98003,-75.14371,,Point,,3017,6th & Berks,15,8,7,2,0,5,7,8,FullService,Active,Active,1,527 W. Berks St.,Philadelphia,PA,19122,1|false|true|null|2|true|true|0.8|4|false|true|null|5|true|true|0.8|7|true|true|0.8|9|true|true|0.8|13|true|true|0.8,,,,false,false,3017,,,,,0
39.95273,-75.15979,,Point,,3018,12th & Filbert,18,0,17,14,0,3,17,0,FullService,Active,Active,1,1200 Filbert St.,Philadelphia,PA,19107,1|false|true|null|2|false|true|null|3|false|true|null|4|false|true|null|5|false|true|null|6|false|true|null|7|false|true|null|8|true|true|0.8|9|true|true|0.8|10|false|true|null|11|false|true|null|12|false|true|null|13|false|true|null|14|false|true|null|15|true|true|0.8|16|false|true|null|17|true|true|0.8|18|false|true|null,,,,false,false,3018,,,,,0
39.95403,-75.14983,,Point,,3019,6th & Race,15,8,6,5,0,1,6,9,FullService,Active,Active,1,160 N. 6th St.,Philadelphia,PA,19106,1|false|false|null|6|false|true|null|7|false|true|null|8|false|true|null|9|false|true|null|11|true|true|0.8|12|false|true|null,,,,false,false,3019,,,,,0
39.94855,-75.19007,,Point,,3020,University City Station,36,22,14,13,0,1,14,22,FullService,Active,Active,1,3051 South St.,Philadelphia,PA,19147,2|false|true|null|4|false|true|null|5|false|true|null|9|false|true|null|11|false|true|null|12|false|true|null|13|false|true|null|14|false|true|null|15|false|true|null|16|false|true|null|19|false|true|null|22|false|true|null|25|false|true|null|36|true|true|0.8,,,,false,false,3020,,,,,0
39.9539,-75.16902,,Point,,3021,18th & JFK,34,20,14,14,0,0,14,20,FullService,Active,Active,1,1750 John F. Kennedy Blvd.,Philadelphia,PA,19103,2|false|true|null|8|false|true|null|10|false|true|null|16|false|true|null|18|false|true|null|19|false|true|null|20|false|true|null|21|false|true|null|23|false|true|null|25|false|true|null|27|false|true|null|29|false|true|null|31|false|true|null,,,,false,false,3021,,,,,0
39.95472,-75.18323,,Point,,3022,Amtrak 30th Street Station,21,18,3,2,0,1,3,18,FullService,Active,Active,1,2933 Market Street,Philadelphia,PA,19104,10|false|true|null|16|true|true|0.8|21|false|true|null,,,,false,false,3022,,,,,0
39.94822,-75.20908,,Point,,3024,"43rd & Chester, Clark Park",19,15,4,4,0,0,4,15,FullService,Active,Active,1,598 S. 43rd St.,Philadelphia,PA,19104,1|false|true|null|13|false|true|null|15|false|true|null|16|false|true|null,,,,false,false,3024,,,,,0
39.93724,-75.1612,,Point,,3025,11th & Washington,15,3,11,8,0,3,11,4,FullService,Active,Active,1,1084 Washington Ave.,Philadelphia,PA,19147,1|false|true|null|2|false|false|null|3|true|true|0.8|4|false|true|null|5|true|true|0.8|6|false|true|null|7|false|true|null|8|false|true|null|9|false|true|null|10|false|true|null|11|true|true|0.8|12|false|true|null,,,,false,false,3025,,,,,0
39.94061,-75.14958,,Point,,3028,4th & Bainbridge,15,10,5,3,0,2,5,10,FullService,Active,Active,1,404 Bainbridge St.,Philadelphia,PA,19147,1|true|true|0.8|2|false|true|null|3|false|true|null|4|true|true|0.8|9|false|true|null,,,,false,false,3028,,,,,0
39.9538,-75.19479,,Point,,3029,36th & Sansom,17,11,6,4,0,2,6,11,FullService,Active,Active,1,125 S. 36th St.,Philadelphia,PA,19104,1|false|true|null|2|true|true|0.8|3|false|true|null|4|true|true|0.8|14|false|true|null|16|false|true|null,,,,false,false,3029,,,,,0
39.93935,-75.15716,,Point,,3030,Darien & Catharine,29,23,5,5,0,0,6,23,FullService,Active,Active,1,840 S. Darien St.,Philadelphia,PA,19147,1|false|false|null|2|false|true|null|4|false|true|null|7|false|true|null|20|false|true|null|26|false|true|null,,,,false,false,3030,,,,,0
39.98005,-75.15522,,Point,,3031,13th & Montgomery,21,11,10,9,0,1,10,11,FullService,Active,Active,1,1284 W. Montgomery Ave.,Philadelphia,PA,19122,4|false|true|null|6|false|true|null|7|false|true|null|8|true|true|0.8|9|false|true|null|10|false|true|null|13|false|true|null|17|false|true|null|18|false|true|null|20|false|true|null,,,,false,false,3031,,,,,0
39.94527,-75.17971,,Point,,3032,23rd & South,20,11,8,6,0,2,9,11,FullService,Active,Active,1,671 S. 23rd St.,Philadelphia,PA,19146,2|false|true|null|4|false|true|null|6|false|false|null|11|false|true|null|13|false|true|null|14|true|true|0.8|15|false|true|null|19|true|true|0.8|20|false|true|null,,,,false,false,3032,,,,,0
39.95005,-75.15672,,Point,,3033,10th & Chestnut,20,9,10,10,0,0,11,9,FullService,Active,Active,1,921 Chestnut St.,Philadelphia,PA,19107,1|false|true|null|3|false|true|null|5|false|true|null|9|false|true|null|12|false|false|null|14|false|true|null|15|false|true|null|16|false|true|null|18|false|true|null|19|false|true|null|20|false|true|null,,,,false,false,3033,,,,,0
39.93315,-75.16248,,Point,,3034,11th & Reed,16,10,6,6,0,0,6,10,FullService,Active,Active,1,1300 S. 11th Street,Philadelphia,PA,19147,2|false|true|null|4|false|true|null|8|false|true|null|10|false|true|null|11|false|true|null|14|false|true|null,,,,false,false,3034,,,,,0
39.96271,-75.19419,,Point,,3035,Dornsife Center,20,17,3,2,0,1,3,17,FullService,Active,Active,1,3599 Spring Garden,Philadelphia,PA,19104,9|false|true|null|15|true|true|0.8|19|false|true|null,,,,false,false,3035,,,,,0
39.95424,-75.16138,,Point,,3037,Pennsylvania Convention Center,21,1,16,14,0,2,17,2,FullService,Active,Active,1,1321 Arch St.,Philadelphia,PA,19107,1|false|true|null|2|false|true|null|3|false|false|null|4|false|true|null|6|false|true|null|7|true|false|0.8|8|false|true|null|9|true|false|0.8|10|false|true|null|11|false|false|null|12|true|true|0.8|13|false|true|null|14|false|true|null|15|true|true|0.8|16|false|true|null|17|false|true|null|18|false|true|null|19|false|true|null|20|false|true|null|21|false|true|null,,,,false,false,3037,,,,,0
39.94781,-75.19409,,Point,,3038,The Children's Hospital of Philadelphia (CHOP),19,6,13,11,0,2,13,6,FullService,Active,Active,1,3499 Civic Center Blvd.,Philadelphia,PA,19104,2|false|true|null|3|false|true|null|4|false|true|null|5|true|true|0.8|6|true|true|0.8|7|false|true|null|8|false|true|null|9|false|true|null|10|false|true|null|11|false|true|null|12|false|true|null|13|false|true|null|14|false|true|null,,,,false,false,3038,,,  ,,0
39.97121,-75.1597,,Point,,3039,Broad & Girard,19,6,10,8,0,2,10,8,FullService,Active,Active,1,922 N. Broad St.,Philadelphia,PA,19130,2|false|true|null|3|false|true|null|4|true|true|0.8|5|false|true|null|6|false|false|null|7|false|true|null|8|false|true|null|9|false|false|null|11|true|true|0.8|12|false|false|null|13|false|true|null|16|false|true|null|19|false|true|null,,,,false,false,3039,,,,,0
39.96289,-75.16606,,Point,,3040,17th & Spring Garden,21,13,7,7,0,0,7,14,FullService,Active,Active,1,1684 Spring Garden St.,Philadelphia,PA,19130,1|false|true|null|2|false|true|null|4|false|true|null|11|false|true|null|14|false|true|null|16|false|true|null|20|false|true|null|21|false|false|null,,,,false,false,3040,,,,,0
39.96849,-75.13546,,Point,,3041,"Girard Station, MFL",26,18,8,6,0,2,8,18,FullService,Active,Active,1,1176 Leopard Ave.,Philadelphia,PA,19123,2|false|true|null|3|false|true|null|4|false|true|null|5|true|true|0.8|6|false|true|null|7|false|true|null|8|false|true|null|9|true|true|0.8,,,,false,false,3041,,,,,0
39.93082,-75.17474,,Point,,3043,"18th & Fernon, Aquinas Center",18,7,10,9,0,1,10,7,FullService,Active,Active,1,1625 S. 18th St.,Philadelphia,PA,19145,5|false|true|null|6|false|true|null|7|true|true|0.8|8|false|true|null|9|false|false|null|10|false|true|null|11|false|true|null|12|false|true|null|13|false|true|null|14|false|true|null|18|false|true|null,,,,false,false,3043,,,,,0
39.94792,-75.16237,,Point,,3045,13th & Locust,15,3,10,8,0,2,10,4,FullService,Active,Active,1,213 S. 13th St.,Philadelphia,PA,19107,2|false|true|null|4|false|true|null|6|false|false|null|7|false|false|null|8|false|true|null|9|true|true|0.8|10|false|true|null|11|false|true|null|12|true|true|0.8|13|false|true|null|14|false|true|null|15|false|true|null,,,,false,false,3045,,,,,0
39.95012,-75.14472,,Point,,3046,2nd & Market,26,16,10,6,0,4,10,16,FullService,Active,Active,1,215 Market St.,Philadelphia,PA,19106,1|true|true|0.8|2|false|true|null|4|true|true|0.8|5|true|true|0.8|6|false|true|null|8|false|true|null|17|true|true|0.8|24|false|true|null|25|false|true|null|26|false|true|null,,,,false,false,3046,,,,,0
39.95071,-75.14921,,Point,,3047,"Independence Mall, NPS",20,4,16,16,0,0,16,4,FullService,Active,Active,1,519 Market St.,Philadelphia,PA,19106,2|false|true|null|3|false|true|null|4|false|true|null|5|false|true|null|7|false|true|null|9|false|true|null|10|false|true|null|11|false|true|null|12|false|true|null|13|false|true|null|14|false|true|null|15|false|true|null|16|false|true|null|17|false|true|null|19|false|true|null|20|false|true|null,,,,false,false,3047,,,,,0
39.94509,-75.1425,,Point,,3049,Foglietta Plaza,29,12,15,13,0,2,15,12,FullService,Active,Active,1,3 Dock St.,Philadelphia,PA,19106,1|false|true|null|4|false|true|null|13|false|true|null|16|true|true|0.8|17|false|true|null|18|false|true|null|19|false|true|null|20|false|true|null|21|false|true|null|22|false|true|null|23|false|true|null|24|true|true|0.8|25|false|true|null|26|false|false|null|27|false|true|null|28|false|true|null|29|false|false|null,,,,false,false,3049,,,,,0
39.95339,-75.15426,,Point,,3050,9th & Arch,15,9,6,6,0,0,6,9,FullService,Active,Active,1,813 Arch St.,Philadelphia,PA,19107,2|false|true|null|4|false|true|null|10|false|true|null|12|false|true|null|14|false|true|null|15|false|true|null,,,,false,false,3050,,,,,0
39.96744,-75.17507,,Point,,3051,23rd & Fairmount,37,27,10,2,0,8,10,27,FullService,Active,Active,1,2237 Fairmount Ave.,Philadelphia,PA,19130,2|true|true|0.8|4|true|true|0.8|9|true|true|0.8|15|true|true|0.8|24|false|true|null|28|false|true|null|32|true|true|0.8|34|true|true|0.8|35|true|true|0.8|36|true|true|0.8,,,,false,false,3051,,,,,0
39.94732,-75.15695,,Point,,3052,9th & Locust,25,10,15,11,0,4,15,10,FullService,Active,Active,1,923 Locust St.,Philadelphia,PA,19107,1|false|true|null|2|false|true|null|3|false|true|null|4|false|true|null|5|true|true|0.8|6|true|true|0.8|8|false|true|null|9|false|true|null|10|true|true|0.8|13|false|true|null|14|false|true|null|21|false|true|null|22|false|true|null|23|true|true|0.8|24|false|true|null,,,,false,false,3052,,,,,0
39.93231,-75.18154,,Point,,3053,Point Breeze & Tasker,19,16,0,0,0,0,1,17,FullService,Active,Active,1,1575 Point Breeze Ave.,Philadelphia,PA,19146,1|false|false|null|2|false|false|null|11|false|false|null,,,,false,false,3053,,,,,0
39.9625,-75.1742,,Point,,3054,Rodin Museum,35,34,1,0,0,1,1,34,FullService,Active,Active,1,2170 Hamilton St.,Philadelphia,PA,19146,7|true|true|0.8,,,,false,false,3054,,,,,0
39.95112,-75.15457,,Point,,3055,8th & Market,15,6,8,7,0,1,8,7,FullService,Active,Active,1,834 Market St.,Philadelphia,PA,19107,3|false|true|null|7|false|false|null|8|false|true|null|9|false|true|null|10|false|true|null|11|false|true|null|12|false|true|null|14|true|true|0.8|15|false|true|null,,,,false,false,3055,,,,,0
39.97669,-75.15813,,Point,,3056,Broad & Oxford,22,19,3,2,0,1,3,19,FullService,Active,Active,1,1501 N. Broad St.,Philadelphia,PA,19122,10|true|true|0.8|13|false|true|null|15|false|true|null,,,,false,false,3056,,,,,0
39.96439,-75.17987,,Point,,3057,Philadelphia Museum of Art,26,15,9,8,0,1,9,15,FullService,Active,Active,1,Schuylkill River Trail,Philadelphia,PA,19130,4|false|true|null|12|false|true|null|14|true|true|0.8|16|false|true|null|17|false|false|null|19|false|true|null|21|false|false|null|22|false|true|null|23|false|true|null|24|false|true|null|25|false|true|null,,,,false,false,3057,,,,,0
39.96716,-75.17001,,Point,,3058,20th & Fairmount,19,11,8,4,0,4,8,11,FullService,Active,Active,1,1940 Fairmount Ave.,Philadelphia,PA,19130,4|true|true|0.8|9|true|true|0.8|12|false|true|null|13|false|true|null|14|false|true|null|17|true|true|0.8|18|false|true|null|19|true|true|0.8,,,,false,false,3058,,,,,0
39.96244,-75.16121,,Point,,3059,"Spring Garden Station, BSL",21,11,9,9,0,0,9,12,FullService,Active,Active,1,1415 Spring Garden St.,Philadelphia,PA,19123,1|false|true|null|2|false|true|null|4|false|false|null|5|false|true|null|6|false|true|null|9|false|true|null|10|false|true|null|11|false|true|null|12|false|true|null|13|false|true|null,,,,false,false,3059,,,,,0
39.95923,-75.17036,,Point,,3060,Free Library of Philadelphia - Central Library,19,17,2,2,0,0,2,17,FullService,Active,Active,1,302 N. 19th St.,Philadelphia,PA,19103,9|false|true|null|15|false|true|null,,,,false,false,3060,,,,,0
39.95425,-75.17761,,Point,,3061,23rd & Market,25,4,19,19,0,0,19,6,FullService,Active,Active,1,2241 Market St.,Philadelphia,PA,19103,1|false|true|null|2|false|true|null|3|false|true|null|4|false|true|null|5|false|true|null|6|false|true|null|7|false|true|null|8|false|true|null|9|false|true|null|10|false|true|null|11|false|true|null|12|false|true|null|13|false|true|null|14|false|true|null|15|false|false|null|16|false|false|null|18|false|true|null|19|false|true|null|20|false|true|null|21|false|true|null|25|false|true|null,,,,false,false,3061,,,,,0
39.95197,-75.17943,,Point,,3062,24th & Sansom,15,8,7,7,0,0,7,8,FullService,Active,Active,1,120 S. 24th St.,Philadelphia,PA,19103,1|false|true|null|3|false|true|null|4|false|true|null|6|false|true|null|9|false|true|null|10|false|true|null|11|false|true|null,,,,false,false,3062,,,,,0
39.94633,-75.1698,,Point,,3063,17th & Pine,25,19,6,4,0,2,6,19,FullService,Active,Active,1,391  S. 17th St.,Philadelphia,PA,19103,4|true|true|0.8|5|false|true|null|6|false|true|null|7|false|true|null|9|false|true|null|23|true|true|0.8,,,,false,false,3063,,,,,0
39.9384,-75.17327,,Point,,3064,"18th & Washington, Chew Playground",22,18,4,3,0,1,4,18,FullService,Active,Active,1,1800 Washington Ave.,Philadelphia,PA,19146,2|true|true|0.8|3|false|true|null|8|false|true|null|21|false|true|null,,,,false,false,3064,,,,,0
39.9707,-75.15171,,Point,,3065,Girard & Hutchinson,15,12,3,3,0,0,3,12,FullService,Active,Active,1,915 W. Girard Ave.,Philadelphia,PA,19123,3|false|true|null|7|false|true|null|12|false|true|null,,,,false,false,3065,,,,,0
39.94561,-75.17348,,Point,,3066,19th & Lombard,29,28,1,0,0,1,1,28,FullService,Active,Active,1,1910 Lombard St.,Philadelphia,PA,19146,12|true|true|0.8,,,,false,false,3066,,,,,0
39.96411,-75.19973,,Point,,3067,"39th & Mt. Vernon, Mantua Haverford Community Center",17,14,3,3,0,0,3,14,FullService,Active,Active,1,631 N. 39th St.,Philadelphia,PA,19104,11|false|true|null|14|false|true|null|15|false|true|null,,,,false,false,3067,,,,,0
39.93549,-75.16711,,Point,,3068,Broad & Federal,18,10,8,8,0,0,8,10,FullService,Active,Active,1,1201 S. Broad St.,Philadelphia,PA,19146,2|false|true|null|3|false|true|null|5|false|true|null|6|false|true|null|11|false|true|null|13|false|true|null|17|false|true|null|18|false|true|null,,,,false,false,3068,,,,,0
39.93704,-75.15038,,Point,,3069,4th & Christian,23,12,10,10,0,0,10,13,FullService,Active,Active,1,403 Christian St.,Philadelphia,PA,19147,1|false|true|null|2|false|true|null|3|false|true|null|4|false|true|null|6|false|true|null|12|false|true|null|15|false|true|null|17|false|true|null|19|false|false|null|20|false|true|null|22|false|true|null,,,,false,false,3069,,,,,0
39.96062,-75.13983,,Point,,3070,"Spring Garden Station, MFL",19,12,7,3,0,4,7,12,FullService,Active,Active,1,117 Spring Garden St.,Philadelphia,PA,19123,5|true|true|0.8|9|true|true|0.8|13|false|true|null|14|false|true|null|16|false|true|null|17|true|true|0.8|18|true|true|0.8,,,,false,false,3070,,,,,0
39.96173,-75.18788,,Point,,3071,"32nd & Baring, Drexel Park",13,2,10,9,0,1,10,2,FullService,Active,Active,1,3170 Baring St.,Philadelphia,PA,19104,1|false|true|null|2|true|true|0.8|3|false|true|null|4|false|true|null|5|false|true|null|6|false|true|null|7|false|true|null|9|false|false|null|11|false|true|null|12|false|true|null|13|false|true|null,,,,false,false,3071,,,,,0
39.93445,-75.14541,,Point,,3072,Front & Carpenter,25,15,6,6,0,0,6,16,FullService,Active,Active,1,925 S. Front St.,Philadelphia,PA,19147,2|false|true|null|5|false|false|null|6|false|true|null|7|false|false|null|9|false|true|null|13|false|true|null|14|false|false|null|15|false|true|null|17|false|true|null|25|false|false|null,,,,false,false,3072,,,,,0
39.96143,-75.15242,,Point,,3073,9th & Spring Garden,15,7,7,5,0,2,8,7,FullService,Active,Active,1,802 Spring Garden St.,Philadelphia,PA,19123,3|false|true|null|4|false|true|null|7|false|true|null|9|true|true|0.8|11|false|true|null|12|false|true|null|14|false|false|null|15|true|true|0.8,,,,false,false,3073,,,,,0
39.95511,-75.20987,,Point,,3074,44th & Walnut,15,12,3,3,0,0,3,12,FullService,Active,Active,1,160 S. 44th St.,Philadelphia,PA,19104,4|false|true|null|12|false|true|null|13|false|true|null,,,,false,false,3074,,,,,0
39.96718,-75.16125,,Point,,3075,Fairmount & Ridge,12,7,5,5,0,0,5,7,FullService,Active,Active,1,1413 Fairmount Ave.,Philadelphia,PA,19130,2|false|true|null|7|false|true|null|8|false|true|null|11|false|true|null|12|false|true|null,,,,false,false,3075,,,,,0
39.97207,-75.16351,,Point,,3077,17th & Girard,19,15,4,4,0,0,4,15,FullService,Active,Active,1,1617 Girard Ave.,Philadelphia,PA,19130,1|false|true|null|14|false|true|null|16|false|true|null|18|false|true|null,,,,false,false,3077,,,,,0
39.95355,-75.17192,,Point,,3078,19th & Market,18,5,13,10,0,3,13,5,FullService,Active,Active,1,1901 Market St.,Philadelphia,PA,19103,1|false|true|null|2|false|true|null|3|false|true|null|4|false|true|null|5|true|true|0.8|6|true|true|0.8|7|true|true|0.8|8|false|true|null|10|false|true|null|12|false|true|null|14|false|true|null|15|false|true|null|16|false|true|null,,,,false,false,3078,,,,,0
39.94019,-75.16691,,Point,,3086,Broad & Christian,21,13,8,8,0,0,8,13,FullService,Active,Active,1,1406 Christian Street,Philadelphia,PA,19146,1|false|true|null|6|false|true|null|10|false|true|null|12|false|true|null|13|false|true|null|16|false|true|null|17|false|true|null|19|false|true|null,,,,false,false,3086,,,,,0
39.96984,-75.1418,,Point,,3088,3rd & Girard,35,18,17,17,0,0,17,18,FullService,Active,Active,1,317 W. Girard Ave. ,Philadelphia,PA,19125,6|false|true|null|7|false|true|null|8|false|true|null|10|false|true|null|12|false|true|null|14|false|true|null|16|false|true|null|19|false|true|null|21|false|true|null|22|false|true|null|26|false|true|null|27|false|true|null|28|false|true|null|30|false|true|null|31|false|true|null|33|false|true|null|35|false|true|null,,,,false,false,3088,,,,,0
39.98837,-75.18701,,Point,,3093,33rd & Diamond,16,3,13,12,0,1,13,3,FullService,Active,Active,1,2039 N. 33rd Street,Philadelphia,PA,19121,1|false|true|null|2|false|true|null|4|false|true|null|5|true|true|0.8|7|false|true|null|8|false|true|null|9|false|true|null|10|false|true|null|11|false|true|null|12|false|true|null|13|false|true|null|14|false|true|null|16|false|true|null,,,,false,false,3093,,,,,0
39.99119,-75.17975,,Point,,3096,29th & Dauphin,14,8,5,3,0,2,5,8,FullService,Active,Active,1,2301 N. 29th Street,Philadelphia,PA,19132,2|false|true|null|3|false|true|null|5|false|true|null|6|true|true|0.8|8|true|false|0.8|10|true|true|0.8,,,,false,false,3096,,,,,0
39.97888,-75.13339,,Point,,3097,"Berks Station, MFL",23,11,8,8,0,0,8,11,FullService,Active,Active,1,1902 N. Front Street,Philadelphia,PA,19122,3|false|false|null|7|false|false|null|12|false|true|null|13|false|true|null|15|false|false|null|16|true|false|0.8|17|false|true|null|18|false|true|null|19|false|true|null|20|false|true|null|21|false|true|null|22|false|true|null,,,,false,false,3097,,,,,0
39.93431,-75.16042,,Point,,3098,10th & Federal,19,7,12,12,0,0,12,7,FullService,Active,Active,1,1201 S. 10th Street,Philadelphia,PA,19147,1|false|true|null|3|false|true|null|4|false|true|null|5|false|true|null|6|false|true|null|7|false|true|null|8|false|true|null|11|false|true|null|15|false|true|null|16|false|true|null|17|false|true|null|19|false|true|null,,,,false,false,3098,,,,,0
39.93401,-75.15094,,Point,,3099,4th & Washington,19,9,10,9,0,1,10,9,FullService,Active,Active,1,1110 S. 4th Street,Philadelphia,PA,19147,1|true|true|0.8|2|false|true|null|3|false|true|null|4|false|true|null|6|false|true|null|11|false|true|null|12|false|true|null|14|false|true|null|15|false|true|null|17|false|true|null,,,,false,false,3099,,,,,0
39.92777,-75.15103,,Point,,3100,Moyamensing & Tasker,38,11,19,16,0,3,19,13,FullService,Active,Active,1,1600 E. Moyamensing,Philadelphia,PA,19148,1|false|true|null|2|false|false|null|3|false|true|null|4|false|true|null|5|false|false|null|6|true|true|0.8|7|false|false|null|11|false|true|null|14|false|true|null|15|true|true|0.8|16|false|true|null|18|false|true|null|20|false|true|null|21|false|true|null|23|false|true|null|24|false|false|null|25|false|true|null|26|false|false|null|27|false|false|null|28|false|false|null|30|false|false|null|31|false|true|null|32|false|true|null|34|false|true|null|35|false|true|null|36|true|true|0.8|37|false|true|null,,,,false,false,3100,,,,,0
39.94295,-75.15955,,Point,,3101,11th & South,18,1,15,13,0,2,15,3,FullService,Active,Active,1,1015 South Street,Philadelphia,PA,19147,1|false|true|null|2|false|true|null|3|false|true|null|4|false|true|null|5|false|true|null|6|false|false|null|7|true|true|0.8|8|false|true|null|9|false|true|null|10|false|false|null|11|true|true|0.8|12|false|true|null|13|false|true|null|14|false|true|null|16|false|true|null|17|false|true|null|18|false|true|null,,,,false,false,3101,,,,,0
39.96759,-75.17952,,Point,,3102,Pennsylvania & Fairmount Perelman Building,26,15,10,9,0,1,10,16,FullService,Active,Active,1,2601 Pennsylvania Avenue,Philadelphia,PA,19130,1|false|true|null|5|false|true|null|7|false|true|null|9|false|true|null|16|false|false|null|18|false|true|null|20|false|true|null|22|false|true|null|23|false|true|null|25|true|true|0.8|26|false|true|null,,,,false,false,3102,,,,,0
39.96664,-75.19209,,Point,,3104,34th & Mantua,13,10,3,2,0,1,3,10,FullService,Active,Active,1,712 N. 34th Street,Philadelphia,PA,19104,1|false|true|null|2|true|true|0.8|13|false|true|null,,,,false,false,3104,,,,,0
39.99179,-75.18637,,Point,,3106,33rd & Dauphin,18,9,9,8,0,1,9,9,FullService,Active,Active,1,2300 N. 33rd Street,Philadelphia,PA,19132,2|false|true|null|4|false|true|null|7|false|true|null|9|false|true|null|12|false|true|null|13|false|true|null|15|false|true|null|16|false|true|null|18|true|true|0.8,,,,false,false,3106,,,,,0
39.98203,-75.18866,,Point,,3107,33rd & Reservoir,18,10,7,6,0,1,8,10,FullService,Active,Active,1,1626 N. 33rd Street,Philadelphia,PA,19121,1|true|true|0.8|2|false|true|null|3|false|true|null|4|false|true|null|7|false|true|null|8|false|true|null|12|false|true|null|15|false|false|null,,,,false,false,3107,,,,,0
39.95316,-75.16551,,Point,,3108,15th & Market,22,14,7,3,0,4,7,15,FullService,Active,Active,1,1515 Market Street,Philadelphia,PA,19102,2|true|true|0.8|6|false|false|null|8|true|true|0.8|12|true|true|0.8|13|true|true|0.8|18|false|true|null|20|false|true|null|22|false|true|null,,,,false,false,3108,,,,,0
39.96175,-75.13641,,Point,,3110,Del. River Trail & Penn St.,19,13,5,5,0,0,5,14,FullService,Active,Active,1,779 Delaware Ave,Philadelphia,PA,19123,1|false|false|null|4|false|true|null|5|false|true|null|9|false|true|null|12|false|true|null|13|false|true|null,,,,false,false,3110,,,,,0
39.97779,-75.21323,,Point,,3111,"Parkside & Belmont, Case Building",14,11,3,2,0,1,3,11,FullService,Active,Active,1,4601 Parkside Ave,Philadelphia,PA,19104,1|false|true|null|7|true|true|0.8|9|false|true|null,,,,false,false,3111,,,,,0
39.95373,-75.21825,,Point,,3112,48th & Spruce,18,16,1,1,0,0,2,16,FullService,Active,Active,1,310 S. 48th Street,Philadelphia,PA,19139,13|false|false|null|14|false|true|null,,,,false,false,3112,,,,,0
39.97472,-75.19781,,Point,,3113,Philadelphia Zoo,12,9,3,3,0,0,3,9,FullService,Active,Active,1,1046 N. 34th Street,Philadelphia,PA,19104,5|false|true|null|10|false|true|null|12|false|true|null,,,,false,false,3113,,,,,0
39.93775,-75.18012,,Point,,3114,22nd & Federal,17,10,5,5,0,0,6,10,FullService,Active,Active,1,22nd & Federal St.,Philadelphia,PA,19146,8|false|false|null|10|false|true|null|12|false|true|null|14|false|true|null|15|false|false|null|16|false|true|null|17|false|true|null,,,,false,false,3114,,,,,0
39.97263,-75.16757,,Point,,3115,"19th & Girard, PTTI",23,21,2,0,0,2,2,21,FullService,Active,Active,1,1901 W. Girard St..,Philadelphia,PA,19130,16|true|true|0.8|23|true|true|0.8,,,,false,false,3115,,,,,0
39.96006,-75.17198,,Point,,3116,Barnes Foundation,21,10,7,7,0,0,7,11,FullService,Active,Active,1,2025 Benjamin Franklin Pkwy,Philadelphia,PA,19122,2|false|false|null|6|false|true|null|7|false|false|null|13|false|true|null|14|false|true|null|15|false|true|null|16|false|false|null|17|false|true|null|18|false|true|null|19|false|true|null|20|false|true|null,,,,false,false,3116,,,,,0
39.97841,-75.22399,,Point,,3117,ParkWest Town Center,19,14,5,3,0,2,5,14,FullService,Active,Active,1,1575 N 52nd St.,Philadelphia,PA,19131,1|false|true|null|2|false|true|null|3|true|true|0.8|9|false|true|null|16|true|true|0.8,,,,false,false,3117,,,,,0
39.95866,-75.21323,,Point,,3118,"46th Street Station, MFL",23,16,6,1,0,5,6,16,FullService,Active,Active,1,4628 Market Street,Philadelphia,PA,19139,12|true|true|0.8|13|false|false|null|16|true|true|0.8|17|true|true|0.8|20|true|true|0.8|21|true|true|0.8|23|false|true|null,,,,false,false,3118,,,,,0
39.96674,-75.20799,,Point,,3119,42nd & Lancaster,17,9,8,5,0,3,8,9,FullService,Active,Active,1,4209 Lancaster Avenue,Philadelphia,PA,19104,3|true|true|0.8|5|false|true|null|6|false|true|null|10|true|true|0.8|11|true|true|0.8|14|false|true|null|15|false|true|null|17|false|true|null,,,,false,false,3119,,,,,0
39.97522,-75.18669,,Point,,3120,31st & Girard,19,11,8,8,0,0,8,11,FullService,Active,Active,1,1210 N. 31st Street,Philadelphia,PA,19121,1|false|true|null|2|false|true|null|3|false|true|null|5|false|true|null|7|false|true|null|10|false|true|null|12|false|true|null|18|false|true|null,,,,false,false,3120,,,,,0
39.97414,-75.18022,,Point,,3121,27th & Girard,18,12,6,3,0,3,6,12,FullService,Active,Active,1,2698 W Girard,Philadelphia,PA,19130,5|true|true|0.8|6|true|true|0.8|12|true|true|0.8|14|false|true|null|15|false|true|null|16|false|true|null,,,,false,false,3121,,,,,0
39.98004,-75.17088,,Point,,3123,22nd & Cecil B. Moore,19,14,5,4,0,1,5,14,FullService,Active,Active,1,1637 N. 22nd Street,Philadelphia,PA,19121,10|false|true|null|11|false|true|null|12|false|true|null|15|true|true|0.8|18|false|true|null,,,,false,false,3123,,,Touchscreen temporarily unavailable. Please use your Indego key to check out a bike.,,0
39.95362,-75.13954,,Point,,3124,Race Street Pier,23,16,7,7,0,0,7,16,FullService,Active,Active,1,190 N Christopher Columbus Blvd (approx.),Philadelphia,PA,19106,1|false|true|null|4|false|true|null|5|false|true|null|7|false|true|null|10|false|true|null|11|false|true|null|22|false|true|null,,,,false,false,3124,,,,,0
39.94391,-75.16735,,Point,,3125,15th & South,19,14,5,2,0,3,5,14,FullService,Active,Active,1,1505 South St. ,Philadelphia ,PA,19146,1|false|true|null|3|true|true|0.8|4|false|true|null|14|true|true|0.8|15|true|true|0.8,,,,false,false,3125,,,,,0
39.92884,-75.17021,,Point,,3150,"15th & Castle, DiSilvestro Playground",17,10,6,6,0,0,7,10,FullService,Active,Active,1,1487 Castle Street,Philadelphia,PA,19145,2|false|true|null|5|false|true|null|7|false|true|null|9|false|false|null|12|false|true|null|14|false|true|null|17|false|true|null,,,,false,false,3150,,,,,0
39.94993,-75.20286,,Point,,3152,"40th & Baltimore, Trolley Portal",17,12,5,5,0,0,5,12,FullService,Active,Active,1,"3960 Baltimore Ave,",Philadelphia,PA,19104,1|false|true|null|2|false|true|null|4|false|true|null|7|false|true|null|9|false|true|null,,,,false,false,3152,,,,,0
39.97216,-75.12994,,Point,,3153,"Thompson & Palmer, Adaire School",11,1,10,6,0,4,10,1,FullService,Active,Active,1,448 East Thompson Street,Philadelphia,PA,19125,1|true|true|0.8|2|false|true|null|3|false|true|null|4|false|true|null|5|false|true|null|6|true|true|0.8|7|false|true|null|8|false|true|null|10|true|true|0.8|11|true|true|0.8,,,,false,false,3153,,,,,0
39.95924,-75.15821,,Point,,3154,12th & Callowhill,19,14,4,4,0,0,4,15,FullService,Active,Active,1,403 N. 12th Street,Philadelphia,PA,19123,1|false|false|null|4|false|true|null|6|false|true|null|8|false|true|null|14|false|true|null,,,,false,false,3154,,,,,0
39.94018,-75.15442,,Point,,3155,7th & Fitzwater,18,14,3,3,0,0,3,15,FullService,Active,Active,1,736 S. 7th St.,Philadelphia,PA,19147,1|false|true|null|3|false|true|null|5|false|true|null|13|false|false|null,,,,false,false,3155,,,,,0
39.95381,-75.17407,,Point,,3156,20th & Market,22,8,13,11,0,2,13,9,FullService,Active,Active,1,2005 market street,Philadelphia,PA,19103,1|false|true|null|2|false|true|null|3|false|true|null|4|false|true|null|5|false|false|null|6|false|true|null|7|false|true|null|8|false|true|null|9|false|true|null|11|false|true|null|13|false|true|null|18|false|true|null|20|true|true|0.8|22|true|true|0.8,,,,false,false,3156,,,,,0
39.92545,-75.15954,,Point,,3157,"8th & Mifflin, Bok Building",18,10,7,7,0,0,8,10,FullService,Active,Active,1,808 Mifflin St.,Philadelphia,PA,19148,2|false|false|null|3|false|true|null|4|false|true|null|6|false|true|null|14|false|true|null|16|false|true|null|17|false|true|null|18|false|true|null,,,,false,false,3157,,,,,0
39.92552,-75.16904,,Point,,3158,Broad & Passyunk ,16,4,10,8,0,2,10,5,FullService,Active,Active,1,1384 McKean Street,Philadelphia,PA,19148,1|false|true|null|2|false|true|null|3|false|true|null|4|false|true|null|5|true|true|0.8|7|true|true|0.8|8|false|false|null|11|false|true|null|13|false|true|null|14|false|false|null|15|false|true|null|16|false|true|null,,,,false,false,3158,,,,,0
39.95121,-75.19962,,Point,,3159,38th & Spruce,23,20,2,1,0,1,2,21,FullService,Active,Active,1,3804 spruce street,Philadelphia,PA,19104,19|false|true|null|20|true|true|0.8|21|false|false|null,,,,false,false,3159,,,,,0
39.95662,-75.19862,,Point,,3160,38th & Market,40,29,11,8,0,3,11,29,FullService,Active,Active,1,3810 Market St.,Philadelphia,PA,19104,1|true|true|0.8|2|false|true|null|3|false|true|null|4|false|true|null|5|false|true|null|6|false|true|null|7|true|true|0.8|8|false|true|null|9|false|true|null|11|false|true|null|12|true|true|0.8,,,,false,false,3160,,,,,0
39.95486,-75.18091,,Point,,3161,30th Street Station East,23,14,6,2,0,4,7,16,FullService,Active,Active,1,Market & Schuylkill Ave,Philadelphia,PA,19104,2|false|true|null|5|true|true|0.8|14|false|false|null|16|false|false|null|18|true|true|0.8|19|true|true|0.8|21|true|true|0.8|22|false|false|null|23|false|true|null,,,,false,false,3161,,,,,0
39.94595,-75.18475,,Point,,3162,27th & South,34,19,13,12,0,1,13,21,FullService,Active,Active,1,630 Schuylkill Ave,Philadelphia,PA,19146,1|true|true|0.8|2|false|false|null|3|false|true|null|6|false|true|null|9|false|true|null|11|false|false|null|14|false|true|null|19|false|true|null|21|false|true|null|25|false|true|null|27|false|true|null|28|false|true|null|30|false|true|null|31|false|true|null|32|false|true|null,,,,false,false,3162,,,,,0
39.94974,-75.18097,,Point,,3163,25th & Locust,21,7,13,13,0,0,14,7,FullService,Active,Active,1,229 S. 25th Street ,Philadelphia,PA,19122,1|false|true|null|2|false|true|null|3|false|true|null|4|false|true|null|6|false|true|null|7|false|true|null|9|false|true|null|11|false|true|null|13|false|true|null|15|false|false|null|16|false|true|null|19|false|true|null|20|false|true|null|21|false|true|null,,,,false,false,3163,,,,,0
39.92814,-75.16515,,Point,,3164,12th & Passyunk,18,8,8,8,0,0,10,8,FullService,Active,Active,1,1724 S. 12th St,Philadelphia,PA,19122,2|false|true|null|4|false|true|null|5|false|true|null|6|false|false|null|7|false|true|null|10|false|false|null|12|false|true|null|13|false|true|null|16|false|true|null|18|false|true|null,,,,false,false,3164,,,,,0
39.95819,-75.1782,,Point,,3165,24th & Race SRT,22,8,11,9,0,2,13,9,FullService,Active,Active,1,2317 Race St,Philadelphia,PA,19103,2|false|true|null|8|false|true|null|11|false|true|null|12|false|true|null|13|true|true|0.8|14|false|true|null|15|false|true|null|16|true|true|0.8|17|false|false|null|18|false|true|null|19|false|true|null|20|false|true|null|21|false|false|null|22|false|false|null,,,,false,false,3165,,,,,0
39.97235,-75.13445,,Point,,3166,Frankford & Belgrade,22,11,11,9,0,2,11,11,FullService,Active,Active,1,1424 Frankford Ave,Philadelphia,PA,19122,1|true|true|0.8|2|false|true|null|3|true|true|0.8|9|false|true|null|10|false|true|null|12|false|true|null|14|false|true|null|16|false|true|null|17|false|true|null|20|false|true|null|22|false|true|null,,,,false,false,3166,,,,,0
39.95025,-75.16028,,Point,,3167,12th & Chestnut,18,4,11,11,0,0,12,5,FullService,Active,Active,1,118 S. 12th St.,Philadelphia,PA,19122,2|false|true|null|3|false|false|null|4|false|true|null|6|false|false|null|7|false|true|null|8|false|true|null|11|false|true|null|12|false|true|null|13|false|true|null|14|false|false|null|15|false|true|null|16|false|true|null|17|false|true|null|18|false|true|null,,,,false,false,3167,,,,,0
39.95134,-75.17394,,Point,,3168,20th & Sansom,23,22,1,1,0,0,1,22,FullService,Active,Active,1,129 S. 20th St.,Philadelphia,PA,19122,15|false|true|null,,,,false,false,3168,,,,,0
39.95382,-75.14263,,Point,,3169,2nd & Race,17,14,2,0,0,2,2,15,FullService,Active,Active,1,151 Race St,Philadelphia,PA,19106,9|false|false|null|13|true|true|0.8|17|true|true|0.8,,,,false,false,3169,,,,,0
39.94426,-75.18134,,Point,,3170,Grays Ferry & Pemberton,16,12,3,3,0,0,4,12,FullService,Active,Active,1,2332 Grays Ferry Ave,Philadelphia,PA,19146,3|false|false|null|10|false|true|null|14|false|true|null|16|false|true|null,,,,false,false,3170,,,,,0
39.89629,-75.17514,,Point,,3181,Crescent Park,20,18,2,1,0,1,2,18,FullService,Active,Active,1,"Crescent Park, Crescent Drive",Philadelphia,PA,19112,4|true|true|0.8|8|false|true|null,,,,false,false,3181,,,,,0
39.95081,-75.16953,,Point,,3182,17th & Sansom,21,5,15,12,0,3,16,5,FullService,Active,Active,1,17th & Sansom,Philadelphia,PA,19112,1|false|true|null|3|true|true|0.8|4|false|true|null|5|true|true|0.8|8|false|false|null|9|false|true|null|10|false|true|null|11|false|true|null|13|true|true|0.8|14|false|true|null|15|false|true|null|16|false|true|null|17|false|true|null|18|false|true|null|19|false|true|null|20|false|true|null,,,,false,false,3182,,,,,0
39.88994,-75.17679,,Point,,3183,15th & Kitty Hawk,20,15,5,4,0,1,5,15,FullService,Active,Active,1,S. 15th & Kitty Hawk Ave,Philadelphia,PA,19112,2|false|true|null|7|false|true|null|15|false|true|null|16|false|true|null|18|true|true|0.8,,,,false,false,3183,,,,,0
39.94573,-75.19551,,Point,,3184,Health Sciences Drive,32,27,4,4,0,0,5,27,FullService,Active,Active,1,Health Sciences Drive,Philadelphia,PA,19104,1|false|true|null|4|false|true|null|5|false|false|null|6|false|true|null|7|false|true|null,,,,false,false,3184,,,,,0
39.95169,-75.15888,,Point,,3185,11th & Market ,21,10,7,4,0,3,9,12,FullService,Active,Active,1,11th & Market,Philadelphia,PA,19107,2|false|false|null|4|false|true|null|5|false|true|null|8|false|true|null|9|false|false|null|11|true|true|0.8|14|true|true|0.8|16|true|true|0.8|17|false|false|null|19|false|false|null|20|false|true|null,,,,false,false,3185,,,,,0
39.89307,-75.17168,,Point,,3186,12th & Normandy,15,10,5,5,0,0,5,10,FullService,Active,Active,1,12th & Normandy Place,Philadelphia,PA,19112,4|false|true|null|8|false|true|null|9|false|true|null|13|false|true|null|15|false|true|null,,,,false,false,3186,,,,,0
39.95725,-75.17232,,Point,,3187,20th & Race,19,12,7,6,0,1,7,12,FullService,Active,Active,1,20th & Race,Philadelphia,PA,19103,1|false|true|null|3|false|true|null|8|true|true|0.8|11|false|true|null|16|false|true|null|17|false|true|null|18|false|true|null,,,,false,false,3187,,,,,0
39.90471,-75.1734,,Point,,3188,"Broad & Pattison, BSL",30,15,13,12,0,1,14,16,FullService,Active,Active,1,3701 Broad Street,Philadelphia,PA,19148,1|false|false|null|2|false|true|null|3|false|false|null|4|false|true|null|5|false|true|null|6|false|true|null|7|false|true|null|8|false|true|null|10|false|true|null|12|false|true|null|13|true|true|0.8|15|false|true|null|17|false|true|null|18|false|true|null|20|false|true|null,,,,false,false,3188,,,,,0
39.94892,-75.16991,,Point,,3190,17th & Locust,20,6,12,12,0,0,12,8,FullService,Active,Active,1,1700 Locust Street,Philadelphia,PA,19103,1|false|true|null|2|false|true|null|3|false|false|null|4|false|true|null|7|false|true|null|8|false|false|null|9|false|true|null|10|false|true|null|13|false|true|null|14|false|true|null|16|false|true|null|17|false|true|null|18|false|true|null|20|false|true|null,,,,false,false,3190,,,,,0
39.96207,-75.14111,,Point,,3192,2nd & Fairmount,20,1,9,7,0,2,9,11,FullService,Active,Active,1,703 N 2nd St.,Philadelphia,PA,19125,1|true|true|0.8|2|false|false|null|4|false|false|null|5|false|true|null|6|false|false|null|7|true|true|0.8|8|false|false|null|9|false|true|null|10|false|false|null|11|false|true|null|12|false|false|null|13|false|true|null|14|false|false|null|15|false|true|null|16|false|false|null|17|false|true|null|18|false|false|null|19|false|true|null|20|false|false|null,,,,false,false,3192,,,,,0
39.98717,-75.17477,,Point,,3196,25th & Diamond,17,13,4,3,0,1,4,13,FullService,Active,Active,1,2501 Diamond Street,Philadelphia,PA,19121,10|false|true|null|15|false|true|null|16|true|true|0.8|17|false|true|null,,,,false,false,3196,,,,,0
39.92083,-75.17033,,Point,,3197,Broad & Ritner,23,8,14,11,0,3,14,9,FullService,Active,Active,1,2301 S Broad St.,Philadelphia,PA,19148,4|false|true|null|8|false|true|null|10|false|true|null|11|false|true|null|12|true|true|0.8|13|false|true|null|14|false|true|null|16|false|true|null|17|false|false|null|18|true|true|0.8|19|true|true|0.8|20|false|true|null|21|false|true|null|22|false|true|null|23|false|true|null,,,,false,false,3197,,,,,0
39.97583,-75.16846,,Point,,3200,Ridge & Master,17,12,5,0,0,5,5,12,FullService,Active,Active,1,2001 Ridge Ave.,Philadelphia,PA,19121,2|true|true|0.8|4|true|true|0.8|12|true|true|0.8|14|true|true|0.8|16|true|true|0.8,,,,false,false,3200,,,,,0
39.95523,-75.1662,,Point,,3201,16th & Arch,20,10,10,10,0,0,10,10,FullService,Active,Active,1,107 16th Street,Philadelphia,PA,19102,1|false|true|null|2|false|true|null|3|false|true|null|5|false|true|null|6|false|true|null|9|false|true|null|11|false|true|null|16|false|true|null|19|false|true|null|20|false|true|null,,,,false,false,3201,,,,,0
39.95134,-75.16758,,Point,,3202,16th & Chestnut,21,2,17,14,0,3,17,2,FullService,Active,Active,1,1603 Chestnut St.,Philadelphia,PA,19102,1|false|true|null|2|false|true|null|3|false|true|null|4|false|true|null|5|true|true|0.8|6|false|true|null|7|false|true|null|8|false|true|null|10|true|true|0.8|11|false|false|null|12|false|true|null|13|true|true|0.8|14|false|false|null|16|false|true|null|17|false|true|null|18|false|true|null|19|false|true|null|20|false|true|null|21|false|true|null,,,,false,false,3202,,,,,0
39.94077,-75.17227,,Point,,3203,18th & Christian,20,14,5,5,0,0,5,15,FullService,Active,Active,1,1798 Christian St,Philadelphia,PA,19146,2|false|true|null|7|false|true|null|15|false|true|null|17|false|true|null|18|false|false|null|20|false|true|null,,,,false,false,3203,,,,,0
39.96437,-75.16582,,Point,,3204,17th & Green,22,17,5,5,0,0,5,17,FullService,Active,Active,1,1698 Green St,Philadelphia,PA,19130,1|false|true|null|4|false|true|null|5|false|true|null|6|false|true|null|7|false|true|null,,,,false,false,3204,,,,,0
39.95405,-75.16783,,Point,,3205,17th & JFK,20,11,9,9,0,0,9,11,FullService,Active,Active,1,1617 John F. Kennedy Blvd,Philadelphia,PA,19103,1|false|true|null|2|false|true|null|3|false|true|null|4|false|true|null|6|false|true|null|7|false|true|null|11|false|true|null|12|false|true|null|17|false|true|null,,,,false,false,3205,,,,,0
39.95174,-75.17063,,Point,,3206,18th & Chestnut,21,17,4,4,0,0,4,17,FullService,Active,Active,1,1805 Chestnut St,Philadelphia,PA,19103,4|false|true|null|5|false|true|null|17|false|true|null|21|false|true|null,,,,false,false,3206,,,,,0
39.95441,-75.192,,Point,,3207,34th & Chestnut,22,15,5,4,0,1,5,17,FullService,Active,Active,1,3400 Chestnut St,Philadelphia,PA,19104,1|true|true|0.8|2|false|true|null|3|false|true|null|4|false|false|null|8|false|false|null|9|false|true|null|22|false|true|null,,,,false,false,3207,,,,,0
39.95048,-75.19324,,Point,,3208,34th & Spruce,28,4,22,13,0,9,22,4,FullService,Active,Active,1,3566 Spruce St,Philadelphia,PA,19104,1|true|true|0.8|3|true|true|0.8|4|false|true|null|5|true|true|0.8|7|false|false|null|9|false|true|null|10|false|false|null|12|false|true|null|13|true|true|0.8|14|true|true|0.8|15|true|true|0.8|16|true|true|0.8|17|false|true|null|18|true|true|0.8|19|false|true|null|20|false|true|null|21|false|true|null|22|false|true|null|23|false|true|null|24|true|true|0.8|25|false|true|null|26|false|true|null|27|false|true|null|28|false|true|null,,,,false,false,3208,,,,,0
39.949,-75.21278,,Point,,3209,45th & Baltimore,14,13,0,0,0,0,0,14,FullService,Active,Active,1,980 45th St,Philadelphia,PA,19104,7|false|false|null,,,,false,false,3209,,,,,0
39.98492,-75.15668,,Point,,3210,Broad & Diamond,18,14,3,2,0,1,4,14,FullService,Active,Active,1,2108 N Broad St,Philadelphia,PA,19121,12|true|true|0.8|13|false|false|null|15|false|true|null|16|false|true|null,,,,false,false,3210,,,,,0
39.97172,-75.1706,,Point,,3211,Corinthian & Poplar,30,25,4,4,0,0,4,26,FullService,Active,Active,1,777 Corinthian Ave.,Philadelphia,PA,19130,1|false|true|null|5|false|true|null|8|false|true|null|13|false|true|null|16|false|false|null,,,,false,false,3211,,,,,0
39.96379,-75.18158,,Point,,3212,Schuylkill Banks Pergola,32,22,9,6,0,3,9,23,FullService,Active,Active,1,2600 Martin Luther King drive,Philadelphia,PA,19130,2|true|true|0.8|10|true|true|0.8|14|false|true|null|17|false|true|null|18|false|true|null|22|false|true|null|24|true|true|0.8|26|false|true|null|31|false|true|null|32|false|false|null,,,,false,false,3212,,,,,0
39.93887,-75.16663,,Point,,3213,Broad & Carpenter,6,3,3,3,0,0,3,3,FullService,Active,Active,10,1000 S Broad St,Philadelphia ,PA,19146,2|false|true|null|4|false|true|null|6|false|true|null,,,,false,false,3213,,,,,0
39.97891,-75.1578,,Point,,3214,Broad & Cecil B Moore,7,0,1,1,0,0,1,0,FullService,Active,Active,10,1052 N Broad St,Philadelphia ,PA,19121,1|false|false|null|2|false|false|null|3|true|false|0.8|4|false|false|null|5|false|false|null|6|true|false|0.8|7|false|true|null,,,,false,false,3214,,,,,0
39.98101,-75.13721,,Point,,3226,2nd & Norris,21,14,5,3,0,2,5,14,FullService,Active,Active,1,"2007 N 2nd st. Philadelphia, PA 19122",Philadelphia,PA,19122,2|true|false|0.8|12|false|true|null|14|true|true|0.8|15|true|true|0.8|16|false|true|null|17|false|true|null|20|false|false|null,,,,false,false,3226,,,,,0
